<?xml version='1.0' encoding='UTF-8'?>
<osm version='0.6' generator='JOSM'>
  <bounds minlat='40.6568589' minlon='-73.7934625' maxlat='40.6614958' maxlon='-73.7860049' origin='OpenStreetMap server' />
  <node id='-26148' action='modify' visible='true' lat='40.6588483369' lon='-73.79209396394' />
  <node id='-26149' action='modify' visible='true' lat='40.65986769559' lon='-73.79195495609' />
  <node id='-26150' action='modify' visible='true' lat='40.66043009371' lon='-73.79149159658' />
  <node id='-27212' action='modify' visible='true' lat='40.65878029567' lon='-73.79207645272' />
  <node id='-27214' action='modify' visible='true' lat='40.65871279312' lon='-73.79205563122' />
  <node id='-27216' action='modify' visible='true' lat='40.6586459219' lon='-73.79203152801' />
  <node id='-27218' action='modify' visible='true' lat='40.65857977378' lon='-73.79200417619' />
  <node id='-27220' action='modify' visible='true' lat='40.65851443957' lon='-73.79197361328' />
  <node id='-27222' action='modify' visible='true' lat='40.65845000892' lon='-73.79193988125' />
  <node id='-27224' action='modify' visible='true' lat='40.65838657029' lon='-73.79190302637' />
  <node id='-27226' action='modify' visible='true' lat='40.65832421073' lon='-73.79186309924' />
  <node id='-27228' action='modify' visible='true' lat='40.65826301583' lon='-73.79182015466' />
  <node id='-27230' action='modify' visible='true' lat='40.65820306961' lon='-73.79177425157' />
  <node id='-27232' action='modify' visible='true' lat='40.65814445431' lon='-73.79172545297' />
  <node id='-27234' action='modify' visible='true' lat='40.65808725043' lon='-73.79167382583' />
  <node id='-27236' action='modify' visible='true' lat='40.65803153644' lon='-73.79161944102' />
  <node id='-27238' action='modify' visible='true' lat='40.65797738883' lon='-73.79156237317' />
  <node id='-27240' action='modify' visible='true' lat='40.65792488193' lon='-73.79150270062' />
  <node id='-27242' action='modify' visible='true' lat='40.65787408779' lon='-73.79144050525' />
  <node id='-27244' action='modify' visible='true' lat='40.65782507616' lon='-73.79137587244' />
  <node id='-27246' action='modify' visible='true' lat='40.65777791427' lon='-73.7913088909' />
  <node id='-27248' action='modify' visible='true' lat='40.65773266689' lon='-73.79123965255' />
  <node id='-27250' action='modify' visible='true' lat='40.6576893961' lon='-73.79116825242' />
  <node id='-27252' action='modify' visible='true' lat='40.65764816131' lon='-73.79109478851' />
  <node id='-27254' action='modify' visible='true' lat='40.65760901912' lon='-73.79101936166' />
  <node id='-27256' action='modify' visible='true' lat='40.65757202324' lon='-73.79094207537' />
  <node id='-27258' action='modify' visible='true' lat='40.65753722445' lon='-73.79086303573' />
  <node id='-27260' action='modify' visible='true' lat='40.65750467054' lon='-73.79078235122' />
  <node id='-27262' action='modify' visible='true' lat='40.65747440617' lon='-73.79070013258' />
  <node id='-27264' action='modify' visible='true' lat='40.65744647289' lon='-73.79061649265' />
  <node id='-27266' action='modify' visible='true' lat='40.65742090903' lon='-73.79053154622' />
  <node id='-27268' action='modify' visible='true' lat='40.6573977497' lon='-73.7904454099' />
  <node id='-27270' action='modify' visible='true' lat='40.65737702667' lon='-73.79035820189' />
  <node id='-27272' action='modify' visible='true' lat='40.65735876839' lon='-73.79027004189' />
  <node id='-27274' action='modify' visible='true' lat='40.65734299992' lon='-73.7901810509' />
  <node id='-27276' action='modify' visible='true' lat='40.65732974291' lon='-73.79009135105' />
  <node id='-27278' action='modify' visible='true' lat='40.65731901555' lon='-73.79000106547' />
  <node id='-27280' action='modify' visible='true' lat='40.65731083257' lon='-73.78991031807' />
  <node id='-27282' action='modify' visible='true' lat='40.6573052052' lon='-73.78981923339' />
  <node id='-27284' action='modify' visible='true' lat='40.65730214116' lon='-73.78972793646' />
  <node id='-27286' action='modify' visible='true' lat='40.65730164466' lon='-73.78963655257' />
  <node id='-27288' action='modify' visible='true' lat='40.65730371639' lon='-73.78954520715' />
  <node id='-27290' action='modify' visible='true' lat='40.65730835348' lon='-73.78945402557' />
  <node id='-27292' action='modify' visible='true' lat='40.6573155496' lon='-73.78936313298' />
  <node id='-27294' action='modify' visible='true' lat='40.65732529484' lon='-73.78927265413' />
  <node id='-27296' action='modify' visible='true' lat='40.65733757585' lon='-73.78918271319' />
  <node id='-27298' action='modify' visible='true' lat='40.65735237575' lon='-73.78909343362' />
  <node id='-27300' action='modify' visible='true' lat='40.65736967424' lon='-73.78900493794' />
  <node id='-27302' action='modify' visible='true' lat='40.65738944758' lon='-73.78891734762' />
  <node id='-27304' action='modify' visible='true' lat='40.65741166861' lon='-73.78883078287' />
  <node id='-27306' action='modify' visible='true' lat='40.65743630685' lon='-73.78874536251' />
  <node id='-27308' action='modify' visible='true' lat='40.65746332847' lon='-73.78866120377' />
  <node id='-27310' action='modify' visible='true' lat='40.65749269638' lon='-73.78857842216' />
  <node id='-27312' action='modify' visible='true' lat='40.65752437028' lon='-73.7884971313' />
  <node id='-27314' action='modify' visible='true' lat='40.65755830668' lon='-73.78841744275' />
  <node id='-27316' action='modify' visible='true' lat='40.65759445901' lon='-73.7883394659' />
  <node id='-27318' action='modify' visible='true' lat='40.65763277764' lon='-73.78826330776' />
  <node id='-27320' action='modify' visible='true' lat='40.65767320999' lon='-73.78818907286' />
  <node id='-27322' action='modify' visible='true' lat='40.65771570054' lon='-73.78811686309' />
  <node id='-27324' action='modify' visible='true' lat='40.65776019098' lon='-73.78804677756' />
  <node id='-27326' action='modify' visible='true' lat='40.65780662023' lon='-73.78797891245' />
  <node id='-27328' action='modify' visible='true' lat='40.65785492459' lon='-73.78791336091' />
  <node id='-27330' action='modify' visible='true' lat='40.65790503773' lon='-73.78785021291' />
  <node id='-27332' action='modify' visible='true' lat='40.6579568909' lon='-73.78778955513' />
  <node id='-27334' action='modify' visible='true' lat='40.65801041289' lon='-73.7877314708' />
  <node id='-27336' action='modify' visible='true' lat='40.65806553026' lon='-73.78767603966' />
  <node id='-27338' action='modify' visible='true' lat='40.65812216734' lon='-73.78762333778' />
  <node id='-27340' action='modify' visible='true' lat='40.65818024642' lon='-73.7875734375' />
  <node id='-27342' action='modify' visible='true' lat='40.65823968777' lon='-73.7875264073' />
  <node id='-27344' action='modify' visible='true' lat='40.65830040978' lon='-73.78748231174' />
  <node id='-27346' action='modify' visible='true' lat='40.65836232914' lon='-73.78744121132' />
  <node id='-27348' action='modify' visible='true' lat='40.65842536084' lon='-73.78740316247' />
  <node id='-27350' action='modify' visible='true' lat='40.6584894184' lon='-73.7873682174' />
  <node id='-27352' action='modify' visible='true' lat='40.65855441386' lon='-73.78733642408' />
  <node id='-27354' action='modify' visible='true' lat='40.65862025802' lon='-73.78730782615' />
  <node id='-27356' action='modify' visible='true' lat='40.65868686051' lon='-73.78728246285' />
  <node id='-27358' action='modify' visible='true' lat='40.65875412993' lon='-73.78726036899' />
  <node id='-27360' action='modify' visible='true' lat='40.65882197393' lon='-73.7872415749' />
  <node id='-27362' action='modify' visible='true' lat='40.65889029942' lon='-73.78722610637' />
  <node id='-27364' action='modify' visible='true' lat='40.65895901259' lon='-73.78721398463' />
  <node id='-27366' action='modify' visible='true' lat='40.65902801915' lon='-73.78720522633' />
  <node id='-27368' action='modify' visible='true' lat='40.65909722439' lon='-73.78719984348' />
  <node id='-27370' action='modify' visible='true' lat='40.65916653331' lon='-73.78719784346' />
  <node id='-27372' action='modify' visible='true' lat='40.6592358508' lon='-73.78719922903' />
  <node id='-27374' action='modify' visible='true' lat='40.65930508171' lon='-73.78720399829' />
  <node id='-27376' action='modify' visible='true' lat='40.65937413103' lon='-73.78721214467' />
  <node id='-27378' action='modify' visible='true' lat='40.659442904' lon='-73.78722365702' />
  <node id='-27380' action='modify' visible='true' lat='40.6595113062' lon='-73.78723851952' />
  <node id='-27382' action='modify' visible='true' lat='40.65957924378' lon='-73.78725671177' />
  <node id='-27384' action='modify' visible='true' lat='40.65964662348' lon='-73.78727820882' />
  <node id='-27386' action='modify' visible='true' lat='40.65971335284' lon='-73.78730298115' />
  <node id='-27388' action='modify' visible='true' lat='40.65977934026' lon='-73.78733099476' />
  <node id='-27390' action='modify' visible='true' lat='40.65984449518' lon='-73.7873622112' />
  <node id='-27392' action='modify' visible='true' lat='40.65990872817' lon='-73.78739658763' />
  <node id='-27394' action='modify' visible='true' lat='40.65997195109' lon='-73.78743407688' />
  <node id='-27396' action='modify' visible='true' lat='40.66003407716' lon='-73.78747462748' />
  <node id='-27398' action='modify' visible='true' lat='40.66009502112' lon='-73.78751818377' />
  <node id='-27400' action='modify' visible='true' lat='40.66015469932' lon='-73.78756468599' />
  <node id='-27402' action='modify' visible='true' lat='40.66021302987' lon='-73.7876140703' />
  <node id='-27404' action='modify' visible='true' lat='40.66026993271' lon='-73.78766626893' />
  <node id='-27406' action='modify' visible='true' lat='40.66032532973' lon='-73.78772121023' />
  <node id='-27408' action='modify' visible='true' lat='40.66037914492' lon='-73.78777881879' />
  <node id='-27410' action='modify' visible='true' lat='40.66043130441' lon='-73.78783901556' />
  <node id='-27412' action='modify' visible='true' lat='40.66048173662' lon='-73.7879017179' />
  <node id='-27414' action='modify' visible='true' lat='40.66053037235' lon='-73.78796683977' />
  <node id='-27416' action='modify' visible='true' lat='40.66057714482' lon='-73.78803429177' />
  <node id='-27418' action='modify' visible='true' lat='40.66062198987' lon='-73.78810398134' />
  <node id='-27420' action='modify' visible='true' lat='40.66066484594' lon='-73.78817581282' />
  <node id='-27422' action='modify' visible='true' lat='40.66070565423' lon='-73.78824968763' />
  <node id='-27424' action='modify' visible='true' lat='40.6607443587' lon='-73.78832550437' />
  <node id='-27426' action='modify' visible='true' lat='40.66078090627' lon='-73.78840315899' />
  <node id='-27428' action='modify' visible='true' lat='40.66081524675' lon='-73.78848254491' />
  <node id='-27430' action='modify' visible='true' lat='40.66084733303' lon='-73.78856355316' />
  <node id='-27432' action='modify' visible='true' lat='40.66087712109' lon='-73.78864607257' />
  <node id='-27434' action='modify' visible='true' lat='40.66090457001' lon='-73.78872998987' />
  <node id='-27436' action='modify' visible='true' lat='40.66092964215' lon='-73.7888151899' />
  <node id='-27438' action='modify' visible='true' lat='40.6609523031' lon='-73.78890155571' />
  <node id='-27440' action='modify' visible='true' lat='40.66097252174' lon='-73.78898896878' />
  <node id='-27442' action='modify' visible='true' lat='40.66099027033' lon='-73.78907730911' />
  <node id='-27444' action='modify' visible='true' lat='40.66100552453' lon='-73.78916645548' />
  <node id='-27446' action='modify' visible='true' lat='40.66101826339' lon='-73.78925628552' />
  <node id='-27448' action='modify' visible='true' lat='40.66102846943' lon='-73.78934667594' />
  <node id='-27450' action='modify' visible='true' lat='40.66103612863' lon='-73.78943750269' />
  <node id='-27452' action='modify' visible='true' lat='40.66104123051' lon='-73.7895286411' />
  <node id='-27454' action='modify' visible='true' lat='40.66104376803' lon='-73.78961996609' />
  <node id='-27456' action='modify' visible='true' lat='40.66104373774' lon='-73.78971135231' />
  <node id='-27458' action='modify' visible='true' lat='40.66104113968' lon='-73.78980267434' />
  <node id='-27460' action='modify' visible='true' lat='40.66103597739' lon='-73.78989380684' />
  <node id='-27462' action='modify' visible='true' lat='40.66102825797' lon='-73.78998462473' />
  <node id='-27464' action='modify' visible='true' lat='40.66101799202' lon='-73.79007500336' />
  <node id='-27466' action='modify' visible='true' lat='40.66100519361' lon='-73.79016481869' />
  <node id='-27468' action='modify' visible='true' lat='40.66098988032' lon='-73.79025394745' />
  <node id='-27470' action='modify' visible='true' lat='40.66097207317' lon='-73.7903422673' />
  <node id='-27472' action='modify' visible='true' lat='40.66095179659' lon='-73.79042965704' />
  <node id='-27474' action='modify' visible='true' lat='40.6609290784' lon='-73.79051599671' />
  <node id='-27476' action='modify' visible='true' lat='40.66090394979' lon='-73.79060116782' />
  <node id='-27478' action='modify' visible='true' lat='40.66087644524' lon='-73.79068505347' />
  <node id='-27480' action='modify' visible='true' lat='40.6608466025' lon='-73.79076753853' />
  <node id='-27482' action='modify' visible='true' lat='40.66081446253' lon='-73.79084850979' />
  <node id='-27484' action='modify' visible='true' lat='40.66078006942' lon='-73.79092785611' />
  <node id='-27486' action='modify' visible='true' lat='40.66074347039' lon='-73.7910054686' />
  <node id='-27488' action='modify' visible='true' lat='40.66070471567' lon='-73.79108124073' />
  <node id='-27490' action='modify' visible='true' lat='40.66066385843' lon='-73.7911550685' />
  <node id='-27492' action='modify' visible='true' lat='40.66062095475' lon='-73.79122685058' />
  <node id='-27494' action='modify' visible='true' lat='40.66057606352' lon='-73.79129648846' />
  <node id='-27496' action='modify' visible='true' lat='40.66052924635' lon='-73.79136388655' />
  <node id='-27498' action='modify' visible='true' lat='40.66048056747' lon='-73.79142895236' />
  <node id='-27500' action='modify' visible='true' lat='40.66038454988' lon='-73.79154431281' />
  <node id='-27502' action='modify' visible='true' lat='40.66033773482' lon='-73.79159505703' />
  <node id='-27504' action='modify' visible='true' lat='40.66028969766' lon='-73.79164377602' />
  <node id='-27506' action='modify' visible='true' lat='40.66024048876' lon='-73.79169041867' />
  <node id='-27508' action='modify' visible='true' lat='40.66019015978' lon='-73.79173493603' />
  <node id='-27510' action='modify' visible='true' lat='40.66013876349' lon='-73.79177728142' />
  <node id='-27512' action='modify' visible='true' lat='40.66008635382' lon='-73.7918174104' />
  <node id='-27514' action='modify' visible='true' lat='40.66003298573' lon='-73.79185528088' />
  <node id='-27516' action='modify' visible='true' lat='40.65997871523' lon='-73.79189085312' />
  <node id='-27518' action='modify' visible='true' lat='40.65992359925' lon='-73.79192408982' />
  <node id='-27520' action='modify' visible='true' lat='40.65980705083' lon='-73.79198533169' />
  <node id='-27522' action='modify' visible='true' lat='40.65974564373' lon='-73.79201291786' />
  <node id='-27524' action='modify' visible='true' lat='40.65968354807' lon='-73.79203768145' />
  <node id='-27526' action='modify' visible='true' lat='40.65962083848' lon='-73.79205959269' />
  <node id='-27528' action='modify' visible='true' lat='40.65955759036' lon='-73.79207862525' />
  <node id='-27530' action='modify' visible='true' lat='40.65949387971' lon='-73.79209475625' />
  <node id='-27532' action='modify' visible='true' lat='40.6594297831' lon='-73.79210796629' />
  <node id='-27534' action='modify' visible='true' lat='40.65936537758' lon='-73.79211823951' />
  <node id='-27536' action='modify' visible='true' lat='40.65930074056' lon='-73.79212556356' />
  <node id='-27538' action='modify' visible='true' lat='40.65923594974' lon='-73.79212992963' />
  <node id='-27540' action='modify' visible='true' lat='40.65917108297' lon='-73.79213133247' />
  <node id='-27542' action='modify' visible='true' lat='40.65910621824' lon='-73.79212977041' />
  <node id='-27544' action='modify' visible='true' lat='40.6590414335' lon='-73.7921252453' />
  <node id='-27546' action='modify' visible='true' lat='40.65897680663' lon='-73.79211776261' />
  <node id='-27548' action='modify' visible='true' lat='40.65891241529' lon='-73.79210733131' />
  <node id='-27564' action='modify' visible='true' lat='40.66125821322' lon='-73.79311493' />
  <node id='-27565' action='modify' visible='true' lat='40.65708362165' lon='-73.79310107022' />
  <node id='-27566' action='modify' visible='true' lat='40.65709651584' lon='-73.78635246411' />
  <node id='-27567' action='modify' visible='true' lat='40.66127110661' lon='-73.78636632389' />
  <node id='-27571' action='modify' visible='true' lat='40.6593305883' lon='-73.78773425469' />
  <node id='-27572' action='modify' visible='true' lat='40.65925427968' lon='-73.78772537895' />
  <node id='-27578' action='modify' visible='true' lat='40.6577205574' lon='-73.78942974057' />
  <node id='-27579' action='modify' visible='true' lat='40.65764424694' lon='-73.78942086483' />
  <node id='-27580' action='modify' visible='true' lat='40.658116664' lon='-73.79081651479' />
  <node id='-27581' action='modify' visible='true' lat='40.658040354' lon='-73.79080763905' />
  <node id='-27582' action='modify' visible='true' lat='40.6592708967' lon='-73.79052456232' />
  <node id='-27583' action='modify' visible='true' lat='40.65919458802' lon='-73.79051568658' />
  <node id='-27584' action='modify' visible='true' lat='40.65988839653' lon='-73.7913608866' />
  <node id='-27585' action='modify' visible='true' lat='40.65981208855' lon='-73.79135201086' />
  <node id='-27586' action='modify' visible='true' lat='40.6607360194' lon='-73.78953080104' />
  <node id='-27587' action='modify' visible='true' lat='40.66065971239' lon='-73.7895219253' />
  <node id='-27588' action='modify' visible='true' lat='40.65948811169' lon='-73.78875038964' />
  <node id='-27589' action='modify' visible='true' lat='40.65941180326' lon='-73.7887415139' />
  <node id='-27590' action='modify' visible='true' lat='40.66014401148' lon='-73.78825070176' />
  <node id='-27591' action='modify' visible='true' lat='40.6600677038' lon='-73.78824182602' />
  <node id='-27594' action='modify' visible='true' lat='40.66073279061' lon='-73.79311318553' />
  <node id='-27595' action='modify' visible='true' lat='40.66023152404' lon='-73.79311152128' />
  <node id='-27596' action='modify' visible='true' lat='40.65946381217' lon='-73.79310897243' />
  <node id='-27597' action='modify' visible='true' lat='40.65894183214' lon='-73.79310723943' />
  <node id='-27598' action='modify' visible='true' lat='40.65836335134' lon='-73.79310531887' />
  <node id='-27599' action='modify' visible='true' lat='40.65790271495' lon='-73.79310378957' />
  <node id='-27600' action='modify' visible='true' lat='40.65708489966' lon='-73.79243217796' />
  <node id='-27601' action='modify' visible='true' lat='40.65708613714' lon='-73.79178450482' />
  <node id='-27602' action='modify' visible='true' lat='40.65708740049' lon='-73.79112328752' />
  <node id='-27603' action='modify' visible='true' lat='40.65708827703' lon='-73.79066451905' />
  <node id='-27604' action='modify' visible='true' lat='40.65708919209' lon='-73.79018559575' />
  <node id='-27605' action='modify' visible='true' lat='40.65709022325' lon='-73.78964590212' />
  <node id='-27606' action='modify' visible='true' lat='40.65709119009' lon='-73.7891398735' />
  <node id='-27607' action='modify' visible='true' lat='40.65709175736' lon='-73.78884297234' />
  <node id='-27608' action='modify' visible='true' lat='40.65709284015' lon='-73.78827625835' />
  <node id='-27609' action='modify' visible='true' lat='40.65709358779' lon='-73.78788495583' />
  <node id='-27610' action='modify' visible='true' lat='40.65709419364' lon='-73.78756786585' />
  <node id='-27611' action='modify' visible='true' lat='40.6570947738' lon='-73.78726421809' />
  <node id='-27612' action='modify' visible='true' lat='40.65709556012' lon='-73.78685267579' />
  <node id='-27613' action='modify' visible='true' lat='40.65745231541' lon='-73.78635364534' />
  <node id='-27614' action='modify' visible='true' lat='40.65796410966' lon='-73.78635534448' />
  <node id='-27615' action='modify' visible='true' lat='40.65855273458' lon='-73.7863572987' />
  <node id='-27616' action='modify' visible='true' lat='40.65901851023' lon='-73.78635884509' />
  <node id='-27617' action='modify' visible='true' lat='40.65952512297' lon='-73.78636052706' />
  <node id='-27618' action='modify' visible='true' lat='40.66004209656' lon='-73.78636224344' />
  <node id='-27619' action='modify' visible='true' lat='40.66052823011' lon='-73.78636385745' />
  <node id='-27620' action='modify' visible='true' lat='40.66102471176' lon='-73.78636550582' />
  <node id='-27621' action='modify' visible='true' lat='40.66127011279' lon='-73.78688650519' />
  <node id='-27622' action='modify' visible='true' lat='40.6612687724' lon='-73.78758808312' />
  <node id='-27623' action='modify' visible='true' lat='40.66126740611' lon='-73.78830322221' />
  <node id='-27624' action='modify' visible='true' lat='40.66126668433' lon='-73.78868101455' />
  <node id='-27625' action='modify' visible='true' lat='40.66126567888' lon='-73.78920728296' />
  <node id='-27626' action='modify' visible='true' lat='40.66126468626' lon='-73.78972683875' />
  <node id='-27627' action='modify' visible='true' lat='40.66126370665' lon='-73.79023957998' />
  <node id='-27628' action='modify' visible='true' lat='40.66126264974' lon='-73.7907927838' />
  <node id='-27629' action='modify' visible='true' lat='40.66126116744' lon='-73.79156864224' />
  <node id='-27630' action='modify' visible='true' lat='40.66126026508' lon='-73.79204095488' />
  <node id='-27631' action='modify' visible='true' lat='40.6612619537' lon='-73.79115709994' />
  <node id='-27632' action='modify' visible='true' lat='40.66125931135' lon='-73.79254015195' />
  <node id='-27638' action='modify' visible='true' lat='40.66081914851' lon='-73.7885126012' />
  <node id='-27639' action='modify' visible='true' lat='40.66066671097' lon='-73.78863386468' />
  <node id='-27645' action='modify' visible='true' lat='40.66061271739' lon='-73.78810787162' />
  <node id='-27646' action='modify' visible='true' lat='40.66048202772' lon='-73.78826726193' />
  <node id='-27647' action='modify' visible='true' lat='40.66040259098' lon='-73.78782079847' />
  <node id='-27648' action='modify' visible='true' lat='40.66030445337' lon='-73.78801662929' />
  <node id='-27655' action='modify' visible='true' lat='40.65958014902' lon='-73.78727374273' />
  <node id='-27656' action='modify' visible='true' lat='40.65954833723' lon='-73.78750467031' />
  <node id='-27657' action='modify' visible='true' lat='40.65986402482' lon='-73.78738529109' />
  <node id='-27658' action='modify' visible='true' lat='40.65979141236' lon='-73.7875995894' />
  <node id='-27659' action='modify' visible='true' lat='40.66017719727' lon='-73.78760296943' />
  <node id='-27660' action='modify' visible='true' lat='40.66007321508' lon='-73.78779348716' />
  <node id='-27673' action='modify' visible='true' lat='40.65788739925' lon='-73.78791359774' />
  <node id='-27674' action='modify' visible='true' lat='40.65801839891' lon='-73.78807255252' />
  <node id='-27675' action='modify' visible='true' lat='40.6581202081' lon='-73.78766177953' />
  <node id='-27676' action='modify' visible='true' lat='40.65821872373' lon='-73.78785728305' />
  <node id='-27677' action='modify' visible='true' lat='40.65843968827' lon='-73.78743017539' />
  <node id='-27678' action='modify' visible='true' lat='40.65850618084' lon='-73.78764789866' />
  <node id='-27679' action='modify' visible='true' lat='40.65870718444' lon='-73.78729572751' />
  <node id='-27680' action='modify' visible='true' lat='40.65878020835' lon='-73.78750978343' />
  <node id='-27681' action='modify' visible='true' lat='40.65900045115' lon='-73.78722270812' />
  <node id='-27682' action='modify' visible='true' lat='40.65903270545' lon='-73.78745352908' />
  <node id='-27683' action='modify' visible='true' lat='40.65934524209' lon='-73.78723191753' />
  <node id='-27684' action='modify' visible='true' lat='40.65934142546' lon='-73.7874665679' />
  <node id='-27733' action='modify' visible='true' lat='40.65852699417' lon='-73.7919580903' />
  <node id='-27734' action='modify' visible='true' lat='40.6585847407' lon='-73.79173607328' />
  <node id='-27735' action='modify' visible='true' lat='40.65819781934' lon='-73.79174166233' />
  <node id='-27736' action='modify' visible='true' lat='40.65829401215' lon='-73.79154415921' />
  <node id='-27737' action='modify' visible='true' lat='40.65794821396' lon='-73.79148186572' />
  <node id='-27738' action='modify' visible='true' lat='40.65807271495' lon='-73.79131408081' />
  <node id='-27739' action='modify' visible='true' lat='40.65774268792' lon='-73.79120878274' />
  <node id='-27740' action='modify' visible='true' lat='40.65786201605' lon='-73.79103458856' />
  <node id='-27741' action='modify' visible='true' lat='40.65753569237' lon='-73.79083911519' />
  <node id='-27742' action='modify' visible='true' lat='40.65768305645' lon='-73.79070738971' />
  <node id='-27743' action='modify' visible='true' lat='40.65741538222' lon='-73.7904509601' />
  <node id='-27744' action='modify' visible='true' lat='40.65757990807' lon='-73.79036123277' />
  <node id='-27745' action='modify' visible='true' lat='40.65735673843' lon='-73.79015407609' />
  <node id='-27746' action='modify' visible='true' lat='40.65752993348' lon='-73.79009963584' />
  <node id='-27747' action='modify' visible='true' lat='40.6573123536' lon='-73.7897350403' />
  <node id='-27748' action='modify' visible='true' lat='40.65749040113' lon='-73.78973653252' />
  <node id='-27749' action='modify' visible='true' lat='40.65733993343' lon='-73.78927538417' />
  <node id='-27750' action='modify' visible='true' lat='40.65751407443' lon='-73.78932430093' />
  <node id='-27751' action='modify' visible='true' lat='40.65740917044' lon='-73.78891818783' />
  <node id='-27752' action='modify' visible='true' lat='40.65758465221' lon='-73.78895791451' />
  <node id='-27753' action='modify' visible='true' lat='40.65752316178' lon='-73.78855617615' />
  <node id='-27754' action='modify' visible='true' lat='40.65768641848' lon='-73.7886498442' />
  <node id='-27755' action='modify' visible='true' lat='40.65768833454' lon='-73.788211055' />
  <node id='-27756' action='modify' visible='true' lat='40.65783385115' lon='-73.78834630162' />
  <node id='-27781' action='modify' visible='true' lat='40.66102665495' lon='-73.78945897198' />
  <node id='-27782' action='modify' visible='true' lat='40.66084949978' lon='-73.78948236448' />
  <node id='-27783' action='modify' visible='true' lat='40.66102903324' lon='-73.78988135044' />
  <node id='-27784' action='modify' visible='true' lat='40.66085274868' lon='-73.78984845764' />
  <node id='-27785' action='modify' visible='true' lat='40.66097120491' lon='-73.79030871203' />
  <node id='-27786' action='modify' visible='true' lat='40.66080360652' lon='-73.79022951065' />
  <node id='-27787' action='modify' visible='true' lat='40.66087543655' lon='-73.79067273019' />
  <node id='-27788' action='modify' visible='true' lat='40.66071197333' lon='-73.79057203974' />
  <node id='-27789' action='modify' visible='true' lat='40.66073200218' lon='-73.79100856982' />
  <node id='-27790' action='modify' visible='true' lat='40.66057973242' lon='-73.79088694013' />
  <node id='-27791' action='modify' visible='true' lat='40.66051178258' lon='-73.79137404078' />
  <node id='-27792' action='modify' visible='true' lat='40.66038131339' lon='-73.7912143366' />
  <node id='-27793' action='modify' visible='true' lat='40.66032834036' lon='-73.79158749859' />
  <node id='-27794' action='modify' visible='true' lat='40.66021858594' lon='-73.79140269333' />
  <node id='-27795' action='modify' visible='true' lat='40.66009194642' lon='-73.79179729002' />
  <node id='-27796' action='modify' visible='true' lat='40.66001873303' lon='-73.79158334745' />
  <node id='-27797' action='modify' visible='true' lat='40.65974425042' lon='-73.7919991797' />
  <node id='-27798' action='modify' visible='true' lat='40.65970536439' lon='-73.79177014163' />
  <node id='-27799' action='modify' visible='true' lat='40.65945853143' lon='-73.79208925067' />
  <node id='-27800' action='modify' visible='true' lat='40.65941274957' lon='-73.79186243822' />
  <node id='-27801' action='modify' visible='true' lat='40.65914433769' lon='-73.79211474767' />
  <node id='-27802' action='modify' visible='true' lat='40.65914084562' lon='-73.79188008852' />
  <node id='-27803' action='modify' visible='true' lat='40.65878938774' lon='-73.79205935292' />
  <node id='-27804' action='modify' visible='true' lat='40.65882196136' lon='-73.79182860987' />
  <node id='-27815' action='modify' visible='true' lat='40.66098914787' lon='-73.78912002261' />
  <node id='-27816' action='modify' visible='true' lat='40.66081969709' lon='-73.78919204931' />
  <node id='-27817' action='modify' visible='true' lat='40.66090651132' lon='-73.78875855353' />
  <node id='-27818' action='modify' visible='true' lat='40.66075494606' lon='-73.78888170201' />
  <way id='-608' action='modify' visible='true'>
    <nd ref='-26148' />
    <nd ref='-27212' />
    <nd ref='-27214' />
    <nd ref='-27216' />
    <nd ref='-27218' />
    <nd ref='-27220' />
    <nd ref='-27222' />
    <nd ref='-27224' />
    <nd ref='-27226' />
    <nd ref='-27228' />
    <nd ref='-27230' />
    <nd ref='-27232' />
    <nd ref='-27234' />
    <nd ref='-27236' />
    <nd ref='-27238' />
    <nd ref='-27240' />
    <nd ref='-27242' />
    <nd ref='-27244' />
    <nd ref='-27246' />
    <nd ref='-27248' />
    <nd ref='-27250' />
    <nd ref='-27252' />
    <nd ref='-27254' />
    <nd ref='-27256' />
    <nd ref='-27258' />
    <nd ref='-27260' />
    <nd ref='-27262' />
    <nd ref='-27264' />
    <nd ref='-27266' />
    <nd ref='-27268' />
    <nd ref='-27270' />
    <nd ref='-27272' />
    <nd ref='-27274' />
    <nd ref='-27276' />
    <nd ref='-27278' />
    <nd ref='-27280' />
    <nd ref='-27282' />
    <nd ref='-27284' />
    <nd ref='-27286' />
    <nd ref='-27288' />
    <nd ref='-27290' />
    <nd ref='-27292' />
    <nd ref='-27294' />
    <nd ref='-27296' />
    <nd ref='-27298' />
    <nd ref='-27300' />
    <nd ref='-27302' />
    <nd ref='-27304' />
    <nd ref='-27306' />
    <nd ref='-27308' />
    <nd ref='-27310' />
    <nd ref='-27312' />
    <nd ref='-27314' />
    <nd ref='-27316' />
    <nd ref='-27318' />
    <nd ref='-27320' />
    <nd ref='-27322' />
    <nd ref='-27324' />
    <nd ref='-27326' />
    <nd ref='-27328' />
    <nd ref='-27330' />
    <nd ref='-27332' />
    <nd ref='-27334' />
    <nd ref='-27336' />
    <nd ref='-27338' />
    <nd ref='-27340' />
    <nd ref='-27342' />
    <nd ref='-27344' />
    <nd ref='-27346' />
    <nd ref='-27348' />
    <nd ref='-27350' />
    <nd ref='-27352' />
    <nd ref='-27354' />
    <nd ref='-27356' />
    <nd ref='-27358' />
    <nd ref='-27360' />
    <nd ref='-27362' />
    <nd ref='-27364' />
    <nd ref='-27366' />
    <nd ref='-27368' />
    <nd ref='-27370' />
    <nd ref='-27372' />
    <nd ref='-27374' />
    <nd ref='-27376' />
    <nd ref='-27378' />
    <nd ref='-27380' />
    <nd ref='-27382' />
    <nd ref='-27384' />
    <nd ref='-27386' />
    <nd ref='-27388' />
    <nd ref='-27390' />
    <nd ref='-27392' />
    <nd ref='-27394' />
    <nd ref='-27396' />
    <nd ref='-27398' />
    <nd ref='-27400' />
    <nd ref='-27402' />
    <nd ref='-27404' />
    <nd ref='-27406' />
    <nd ref='-27408' />
    <nd ref='-27410' />
    <nd ref='-27412' />
    <nd ref='-27414' />
    <nd ref='-27416' />
    <nd ref='-27418' />
    <nd ref='-27420' />
    <nd ref='-27422' />
    <nd ref='-27424' />
    <nd ref='-27426' />
    <nd ref='-27428' />
    <nd ref='-27430' />
    <nd ref='-27432' />
    <nd ref='-27434' />
    <nd ref='-27436' />
    <nd ref='-27438' />
    <nd ref='-27440' />
    <nd ref='-27442' />
    <nd ref='-27444' />
    <nd ref='-27446' />
    <nd ref='-27448' />
    <nd ref='-27450' />
    <nd ref='-27452' />
    <nd ref='-27454' />
    <nd ref='-27456' />
    <nd ref='-27458' />
    <nd ref='-27460' />
    <nd ref='-27462' />
    <nd ref='-27464' />
    <nd ref='-27466' />
    <nd ref='-27468' />
    <nd ref='-27470' />
    <nd ref='-27472' />
    <nd ref='-27474' />
    <nd ref='-27476' />
    <nd ref='-27478' />
    <nd ref='-27480' />
    <nd ref='-27482' />
    <nd ref='-27484' />
    <nd ref='-27486' />
    <nd ref='-27488' />
    <nd ref='-27490' />
    <nd ref='-27492' />
    <nd ref='-27494' />
    <nd ref='-27496' />
    <nd ref='-27498' />
    <nd ref='-26150' />
    <nd ref='-27500' />
    <nd ref='-27502' />
    <nd ref='-27504' />
    <nd ref='-27506' />
    <nd ref='-27508' />
    <nd ref='-27510' />
    <nd ref='-27512' />
    <nd ref='-27514' />
    <nd ref='-27516' />
    <nd ref='-27518' />
    <nd ref='-26149' />
    <nd ref='-27520' />
    <nd ref='-27522' />
    <nd ref='-27524' />
    <nd ref='-27526' />
    <nd ref='-27528' />
    <nd ref='-27530' />
    <nd ref='-27532' />
    <nd ref='-27534' />
    <nd ref='-27536' />
    <nd ref='-27538' />
    <nd ref='-27540' />
    <nd ref='-27542' />
    <nd ref='-27544' />
    <nd ref='-27546' />
    <nd ref='-27548' />
    <nd ref='-26148' />
    <tag k='barrier' v='wall' />
    <tag k='height' v='200' />
  </way>
  <way id='-610' action='modify' visible='true'>
    <nd ref='-27564' />
    <nd ref='-27594' />
    <nd ref='-27595' />
    <nd ref='-27596' />
    <nd ref='-27597' />
    <nd ref='-27598' />
    <nd ref='-27599' />
    <nd ref='-27565' />
    <nd ref='-27600' />
    <nd ref='-27601' />
    <nd ref='-27602' />
    <nd ref='-27603' />
    <nd ref='-27604' />
    <nd ref='-27605' />
    <nd ref='-27606' />
    <nd ref='-27607' />
    <nd ref='-27608' />
    <nd ref='-27609' />
    <nd ref='-27610' />
    <nd ref='-27611' />
    <nd ref='-27612' />
    <nd ref='-27566' />
    <nd ref='-27613' />
    <nd ref='-27614' />
    <nd ref='-27615' />
    <nd ref='-27616' />
    <nd ref='-27617' />
    <nd ref='-27618' />
    <nd ref='-27619' />
    <nd ref='-27620' />
    <nd ref='-27567' />
    <nd ref='-27621' />
    <nd ref='-27622' />
    <nd ref='-27623' />
    <nd ref='-27624' />
    <nd ref='-27625' />
    <nd ref='-27626' />
    <nd ref='-27627' />
    <nd ref='-27628' />
    <nd ref='-27631' />
    <nd ref='-27629' />
    <nd ref='-27630' />
    <nd ref='-27632' />
    <nd ref='-27564' />
    <tag k='name' v='map-outer-contour' />
  </way>
  <way id='-676' action='modify' visible='true'>
    <nd ref='-27571' />
    <nd ref='-27572' />
    <tag k='spawn:group' v='player0' />
    <tag k='spawn_line' v='yes' />
  </way>
  <way id='-680' action='modify' visible='true'>
    <nd ref='-27578' />
    <nd ref='-27579' />
    <tag k='spawn:group' v='player1' />
    <tag k='spawn_line' v='yes' />
  </way>
  <way id='-681' action='modify' visible='true'>
    <nd ref='-27580' />
    <nd ref='-27581' />
    <tag k='spawn:group' v='player2' />
    <tag k='spawn_line' v='yes' />
  </way>
  <way id='-682' action='modify' visible='true'>
    <nd ref='-27582' />
    <nd ref='-27583' />
    <tag k='spawn:group' v='player3' />
    <tag k='spawn_line' v='yes' />
  </way>
  <way id='-683' action='modify' visible='true'>
    <nd ref='-27584' />
    <nd ref='-27585' />
    <tag k='spawn:group' v='player4' />
    <tag k='spawn_line' v='yes' />
  </way>
  <way id='-684' action='modify' visible='true'>
    <nd ref='-27586' />
    <nd ref='-27587' />
    <tag k='spawn:group' v='player5' />
    <tag k='spawn_line' v='yes' />
  </way>
  <way id='-685' action='modify' visible='true'>
    <nd ref='-27588' />
    <nd ref='-27589' />
    <tag k='spawn:group' v='player7' />
    <tag k='spawn_line' v='yes' />
  </way>
  <way id='-686' action='modify' visible='true'>
    <nd ref='-27590' />
    <nd ref='-27591' />
    <tag k='spawn:group' v='player6' />
    <tag k='spawn_line' v='yes' />
  </way>
  <way id='-693' action='modify' visible='true'>
    <nd ref='-27638' />
    <nd ref='-27639' />
    <tag k='highway' v='wall' />
    <tag k='width' v='0.5' />
  </way>
  <way id='-741' action='modify' visible='true'>
    <nd ref='-27645' />
    <nd ref='-27646' />
    <tag k='highway' v='wall' />
    <tag k='width' v='0.5' />
  </way>
  <way id='-742' action='modify' visible='true'>
    <nd ref='-27647' />
    <nd ref='-27648' />
    <tag k='highway' v='wall' />
    <tag k='width' v='0.5' />
  </way>
  <way id='-746' action='modify' visible='true'>
    <nd ref='-27655' />
    <nd ref='-27656' />
    <tag k='highway' v='wall' />
    <tag k='width' v='0.5' />
  </way>
  <way id='-747' action='modify' visible='true'>
    <nd ref='-27657' />
    <nd ref='-27658' />
    <tag k='highway' v='wall' />
    <tag k='width' v='0.5' />
  </way>
  <way id='-748' action='modify' visible='true'>
    <nd ref='-27659' />
    <nd ref='-27660' />
    <tag k='highway' v='wall' />
    <tag k='width' v='0.5' />
  </way>
  <way id='-755' action='modify' visible='true'>
    <nd ref='-27673' />
    <nd ref='-27674' />
    <tag k='highway' v='wall' />
    <tag k='width' v='0.5' />
  </way>
  <way id='-756' action='modify' visible='true'>
    <nd ref='-27675' />
    <nd ref='-27676' />
    <tag k='highway' v='wall' />
    <tag k='width' v='0.5' />
  </way>
  <way id='-757' action='modify' visible='true'>
    <nd ref='-27677' />
    <nd ref='-27678' />
    <tag k='highway' v='wall' />
    <tag k='width' v='0.5' />
  </way>
  <way id='-758' action='modify' visible='true'>
    <nd ref='-27679' />
    <nd ref='-27680' />
    <tag k='highway' v='wall' />
    <tag k='width' v='0.5' />
  </way>
  <way id='-759' action='modify' visible='true'>
    <nd ref='-27681' />
    <nd ref='-27682' />
    <tag k='highway' v='wall' />
    <tag k='width' v='0.5' />
  </way>
  <way id='-760' action='modify' visible='true'>
    <nd ref='-27683' />
    <nd ref='-27684' />
    <tag k='highway' v='wall' />
    <tag k='width' v='0.5' />
  </way>
  <way id='-785' action='modify' visible='true'>
    <nd ref='-27733' />
    <nd ref='-27734' />
    <tag k='highway' v='wall' />
    <tag k='width' v='0.5' />
  </way>
  <way id='-786' action='modify' visible='true'>
    <nd ref='-27735' />
    <nd ref='-27736' />
    <tag k='highway' v='wall' />
    <tag k='width' v='0.5' />
  </way>
  <way id='-787' action='modify' visible='true'>
    <nd ref='-27737' />
    <nd ref='-27738' />
    <tag k='highway' v='wall' />
    <tag k='width' v='0.5' />
  </way>
  <way id='-788' action='modify' visible='true'>
    <nd ref='-27739' />
    <nd ref='-27740' />
    <tag k='highway' v='wall' />
    <tag k='width' v='0.5' />
  </way>
  <way id='-789' action='modify' visible='true'>
    <nd ref='-27741' />
    <nd ref='-27742' />
    <tag k='highway' v='wall' />
    <tag k='width' v='0.5' />
  </way>
  <way id='-790' action='modify' visible='true'>
    <nd ref='-27743' />
    <nd ref='-27744' />
    <tag k='highway' v='wall' />
    <tag k='width' v='0.5' />
  </way>
  <way id='-791' action='modify' visible='true'>
    <nd ref='-27745' />
    <nd ref='-27746' />
    <tag k='highway' v='wall' />
    <tag k='width' v='0.5' />
  </way>
  <way id='-792' action='modify' visible='true'>
    <nd ref='-27747' />
    <nd ref='-27748' />
    <tag k='highway' v='wall' />
    <tag k='width' v='0.5' />
  </way>
  <way id='-793' action='modify' visible='true'>
    <nd ref='-27749' />
    <nd ref='-27750' />
    <tag k='highway' v='wall' />
    <tag k='width' v='0.5' />
  </way>
  <way id='-794' action='modify' visible='true'>
    <nd ref='-27751' />
    <nd ref='-27752' />
    <tag k='highway' v='wall' />
    <tag k='width' v='0.5' />
  </way>
  <way id='-795' action='modify' visible='true'>
    <nd ref='-27753' />
    <nd ref='-27754' />
    <tag k='highway' v='wall' />
    <tag k='width' v='0.5' />
  </way>
  <way id='-796' action='modify' visible='true'>
    <nd ref='-27755' />
    <nd ref='-27756' />
    <tag k='highway' v='wall' />
    <tag k='width' v='0.5' />
  </way>
  <way id='-809' action='modify' visible='true'>
    <nd ref='-27781' />
    <nd ref='-27782' />
    <tag k='highway' v='wall' />
    <tag k='width' v='0.5' />
  </way>
  <way id='-810' action='modify' visible='true'>
    <nd ref='-27783' />
    <nd ref='-27784' />
    <tag k='highway' v='wall' />
    <tag k='width' v='0.5' />
  </way>
  <way id='-811' action='modify' visible='true'>
    <nd ref='-27785' />
    <nd ref='-27786' />
    <tag k='highway' v='wall' />
    <tag k='width' v='0.5' />
  </way>
  <way id='-812' action='modify' visible='true'>
    <nd ref='-27787' />
    <nd ref='-27788' />
    <tag k='highway' v='wall' />
    <tag k='width' v='0.5' />
  </way>
  <way id='-813' action='modify' visible='true'>
    <nd ref='-27789' />
    <nd ref='-27790' />
    <tag k='highway' v='wall' />
    <tag k='width' v='0.5' />
  </way>
  <way id='-814' action='modify' visible='true'>
    <nd ref='-27791' />
    <nd ref='-27792' />
    <tag k='highway' v='wall' />
    <tag k='width' v='0.5' />
  </way>
  <way id='-815' action='modify' visible='true'>
    <nd ref='-27793' />
    <nd ref='-27794' />
    <tag k='highway' v='wall' />
    <tag k='width' v='0.5' />
  </way>
  <way id='-816' action='modify' visible='true'>
    <nd ref='-27795' />
    <nd ref='-27796' />
    <tag k='highway' v='wall' />
    <tag k='width' v='0.5' />
  </way>
  <way id='-817' action='modify' visible='true'>
    <nd ref='-27797' />
    <nd ref='-27798' />
    <tag k='highway' v='wall' />
    <tag k='width' v='0.5' />
  </way>
  <way id='-818' action='modify' visible='true'>
    <nd ref='-27799' />
    <nd ref='-27800' />
    <tag k='highway' v='wall' />
    <tag k='width' v='0.5' />
  </way>
  <way id='-819' action='modify' visible='true'>
    <nd ref='-27801' />
    <nd ref='-27802' />
    <tag k='highway' v='wall' />
    <tag k='width' v='0.5' />
  </way>
  <way id='-820' action='modify' visible='true'>
    <nd ref='-27803' />
    <nd ref='-27804' />
    <tag k='highway' v='wall' />
    <tag k='width' v='0.5' />
  </way>
  <way id='-825' action='modify' visible='true'>
    <nd ref='-27815' />
    <nd ref='-27816' />
    <tag k='highway' v='wall' />
    <tag k='width' v='0.5' />
  </way>
  <way id='-826' action='modify' visible='true'>
    <nd ref='-27817' />
    <nd ref='-27818' />
    <tag k='highway' v='wall' />
    <tag k='width' v='0.5' />
  </way>
</osm>
